NORAD_CAT_ID,OBJECT_NAME,OBJECT_TYPE,EPOCH,MEAN_MOTION,ECCENTRICITY,INCLINATION,RA_OF_ASC_NODE,ARG_OF_PERICENTER,MEAN_ANOMALY,BSTAR,MEAN_MOTION_DOT,MEAN_MOTION_DDOT,TLE_LINE0,TLE_LINE1,TLE_LINE2,SEMIMAJOR_AXIS,PERIOD,APOGEE,PERIGEE,DECAYED
54808.0,STARLINK-5413,PAYLOAD,2024-03-12 14:31:35,15.08845766,0.0001546,53.2176,38.2987,94.3343,265.7826,0.00022472,3.291e-05,0.0,0 STARLINK-5413,1 54808U 22175BC  24072.60526786  .00003291  00000-0  22472-3 0  9992,2 54808  53.2176  38.2987 0001546  94.3343 265.7826 15.08845766 70575,6917.863,95.437,540.797,538.658,0.0
54808.0,STARLINK-5413,PAYLOAD,2024-03-13 04:50:03,15.08845149,0.0001693,53.2201,35.6261,103.305,256.8131,3.1799e-05,2.18e-06,0.0,0 STARLINK-5413,1 54808U 22175BC  24073.20143076  .00000218  00000-0  31799-4 0  9995,2 54808  53.2201  35.6261 0001693 103.3050 256.8131 15.08845149 68504,6917.865,95.437,540.901,538.558,0.0
54808.0,STARLINK-5413,PAYLOAD,2024-03-13 14:22:21,15.08857213,0.0001552,53.2187,33.8389,86.9413,273.1757,0.0001351,1.864e-05,0.0,0 STARLINK-5413,1 54808U 22175BC  24073.59885859  .00001864  00000-0  13510-3 0  9997,2 54808  53.2187  33.8389 0001552  86.9413 273.1757 15.08857213 70729,6917.828,95.436,540.766,538.619,0.0
54808.0,STARLINK-5413,PAYLOAD,2024-03-13 20:43:54,15.08853059,0.0002181,53.2179,32.6503,83.9619,276.1621,0.00015768,2.223e-05,0.0,0 STARLINK-5413,1 54808U 22175BC  24073.86382142  .00002223  00000-0  15768-3 0  9991,2 54808  53.2179  32.6503 0002181  83.9619 276.1621 15.08853059 68600,6917.84,95.437,541.214,538.197,0.0
54808.0,STARLINK-5413,PAYLOAD,2024-03-14 04:40:50,15.08842625,0.0001527,53.2181,31.163,86.8288,273.2879,2.9717e-05,1.85e-06,0.0,0 STARLINK-5413,1 54808U 22175BC  24074.19502474  .00000185  00000-0  29717-4 0  9995,2 54808  53.2181  31.1630 0001527  86.8288 273.2879 15.08842625 68650,6917.872,95.437,540.794,538.681,0.0
54808.0,STARLINK-5413,PAYLOAD,2024-03-14 06:16:13,15.08846664,0.0001604,53.2184,30.8649,85.4059,274.7117,9.3186e-05,1.196e-05,0.0,0 STARLINK-5413,1 54808U 22175BC  24074.26126287  .00001196  00000-0  93186-4 0  9991,2 54808  53.2184  30.8649 0001604  85.4059 274.7117 15.08846664 70826,6917.86,95.437,540.835,538.615,0.0
54808.0,STARLINK-5413,PAYLOAD,2024-03-14 20:34:42,15.08824699,9.48e-05,53.2193,28.1869,106.2308,253.8789,-9.7976e-05,-1.846e-05,0.0,0 STARLINK-5413,1 54808U 22175BC  24074.85743561 -.00001846  00000-0 -97976-4 0  9991,2 54808  53.2193  28.1869 0000948 106.2308 253.8789 15.08824699 68755,6917.927,95.439,540.448,539.136,0.0
54808.0,STARLINK-5413,PAYLOAD,2024-03-15 06:07:01,15.08843144,0.0001159,53.2175,26.4024,86.9352,273.1773,0.00030153,4.515e-05,0.0,0 STARLINK-5413,1 54808U 22175BC  24075.25487503  .00004515  00000-0  30153-3 0  9994,2 54808  53.2175  26.4024 0001159  86.9352 273.1773 15.08843144 68818,6917.871,95.437,540.538,538.934,0.0
54808.0,STARLINK-5413,PAYLOAD,2024-03-16 02:47:01,15.08863065,0.0001166,53.2187,22.5375,99.7372,260.3752,0.00067367,0.00010456,0.0,0 STARLINK-5413,1 54808U 22175BC  24076.11598614  .00010456  00000-0  67367-3 0  9994,2 54808  53.2187  22.5375 0001166  99.7372 260.3752 15.08863065 68942,6917.81,95.436,540.482,538.868,0.0
54808.0,STARLINK-5413,PAYLOAD,2024-03-16 05:57:47,15.08859185,0.0001207,53.2172,21.9475,79.2746,280.8382,0.00066375,0.00010297,0.0,0 STARLINK-5413,1 54808U 22175BC  24076.24846895  .00010297  00000-0  66375-3 0  9996,2 54808  53.2172  21.9475 0001207  79.2746 280.8382 15.08859185 71122,6917.822,95.436,540.522,538.852,0.0
54808.0,STARLINK-5413,PAYLOAD,2024-03-17 02:37:49,15.0882801,0.0001182,53.2186,18.0772,77.4964,282.616,0.00046478,7.114e-05,0.0,0 STARLINK-5413,1 54808U 22175BC  24077.10960000  .00007114  00000-0  46478-3 0  9993,2 54808  53.2186  18.0772 0001182  77.4964 282.6160 15.08828010 69098,6917.917,95.438,540.6,538.964,0.0
54808.0,STARLINK-5413,PAYLOAD,2024-03-18 00:53:12,15.08843081,0.0001385,53.2184,13.9086,105.0861,255.0284,3.6404e-05,2.92e-06,0.0,0 STARLINK-5413,1 54808U 22175BC  24078.03694674  .00000292  00000-0  36404-4 0  9996,2 54808  53.2184  13.9086 0001385 105.0861 255.0284 15.08843081 69239,6917.871,95.437,540.694,538.778,0.0
54808.0,STARLINK-5413,PAYLOAD,2024-03-18 05:39:21,15.08842346,0.0001446,53.2187,13.0184,108.5861,251.5288,1.8204e-05,2e-08,0.0,0 STARLINK-5413,1 54808U 22175BC  24078.23566714  .00000002  00000-0  18204-4 0  9998,2 54808  53.2187  13.0184 0001446 108.5861 251.5288 15.08842346 71420,6917.873,95.437,540.739,538.738,0.0
54808.0,STARLINK-5413,PAYLOAD,2024-03-19 02:19:22,15.08840207,0.0001173,53.2182,9.1548,87.3034,272.8093,5.3357e-05,5.61e-06,0.0,0 STARLINK-5413,1 54808U 22175BC  24079.09678886  .00000561  00000-0  53357-4 0  9995,2 54808  53.2182   9.1548 0001173  87.3034 272.8093 15.08840207 69395,6917.88,95.438,540.556,538.933,0.0
54808.0,STARLINK-5413,PAYLOAD,2024-03-20 05:20:55,15.08853971,0.0001189,53.2179,4.1014,98.2991,261.8136,8.9688e-05,1.14e-05,0.0,0 STARLINK-5413,1 54808U 22175BC  24080.22285993  .00001140  00000-0  89688-4 0  9995,2 54808  53.2179   4.1014 0001189  98.2991 261.8136 15.08853971 69561,6917.838,95.437,540.525,538.88,0.0
54808.0,STARLINK-5413,PAYLOAD,2024-03-20 22:50:10,15.08837778,0.00014,53.2173,0.8241,119.2265,240.8867,-4.7966e-05,-1.051e-05,0.0,0 STARLINK-5413,1 54808U 22175BC  24080.95150726 -.00001051  00000-0 -47966-4 0  9996,2 54808  53.2173   0.8241 0001400 119.2265 240.8867 15.08837778 71832,6917.887,95.438,540.721,538.784,0.0
54808.0,STARLINK-5413,PAYLOAD,2024-03-21 02:00:56,15.08835278,8.94e-05,53.2171,0.2308,101.953,258.1563,-8.0065e-05,-1.562e-05,0.0,0 STARLINK-5413,1 54808U 22175BC  24081.08399042 -.00001562  00000-0 -80065-4 0  9991,2 54808  53.2171   0.2308 0000894 101.9530 258.1563 15.08835278 69696,6917.895,95.438,540.378,539.141,0.0
54808.0,STARLINK-5413,PAYLOAD,2024-03-21 11:33:15,15.08844415,0.0001105,53.2186,358.4527,84.2926,275.8192,9.5062e-05,1.226e-05,0.0,0 STARLINK-5413,1 54808U 22175BC  24081.48142911  .00001226  00000-0  95062-4 0  9994,2 54808  53.2186 358.4527 0001105  84.2926 275.8192 15.08844415 71916,6917.867,95.437,540.496,538.967,0.0
54808.0,STARLINK-5413,PAYLOAD,2024-03-21 17:54:48,15.08819755,7.78e-05,53.2178,357.2606,113.082,247.0255,-0.00026921,-4.567e-05,0.0,0 STARLINK-5413,1 54808U 22175BC  24081.74639891 -.00004567  00000-0 -26921-3 0  9991,2 54808  53.2178 357.2606 0000778 113.0820 247.0255 15.08819755 69794,6917.942,95.439,540.345,539.269,0.0
54808.0,STARLINK-5413,PAYLOAD,2024-03-22 01:51:43,15.08853221,0.0001335,53.2178,355.7728,127.7986,232.3127,0.00025181,3.723e-05,0.0,0 STARLINK-5413,1 54808U 22175BC  24082.07758199  .00003723  00000-0  25181-3 0  9999,2 54808  53.2178 355.7728 0001335 127.7986 232.3127 15.08853221 69844,6917.84,95.437,540.629,538.781,0.0
54808.0,STARLINK-5413,PAYLOAD,2024-03-22 17:45:34,15.08844496,0.0001172,53.2188,352.8039,99.5023,260.6101,0.00019897,2.881e-05,0.0,0 STARLINK-5413,1 54808U 22175BC  24082.73998520  .00002881  00000-0  19897-3 0  9997,2 54808  53.2188 352.8039 0001172  99.5023 260.6101 15.08844496 69946,6917.867,95.437,540.542,538.921,0.0
54808.0,STARLINK-5413,PAYLOAD,2024-03-22 22:31:45,15.08823255,0.0001116,53.2188,351.9098,87.8735,272.2385,3.0544e-05,1.98e-06,0.0,0 STARLINK-5413,1 54808U 22175BC  24082.93872359  .00000198  00000-0  30544-4 0  9992,2 54808  53.2188 351.9098 0001116  87.8735 272.2385 15.08823255 72137,6917.932,95.439,540.569,539.025,0.0
54808.0,STARLINK-5413,PAYLOAD,2024-03-23 03:17:54,15.08829245,0.0001124,53.2189,351.0159,87.1762,272.9358,8.1069e-05,1.002e-05,0.0,0 STARLINK-5413,1 54808U 22175BC  24083.13744131  .00001002  00000-0  81069-4 0  9994,2 54808  53.2189 351.0159 0001124  87.1762 272.9358 15.08829245 70005,6917.913,95.438,540.556,539.001,0.0
54808.0,STARLINK-5413,PAYLOAD,2024-03-23 22:22:32,15.08836558,7.69e-05,53.2186,347.4474,60.9861,299.1208,0.00027549,4.099e-05,0.0,0 STARLINK-5413,1 54808U 22175BC  24083.93231700  .00004099  00000-0  27549-3 0  9996,2 54808  53.2186 347.4474 0000769  60.9861 299.1208 15.08836558 72286,6917.891,95.438,540.288,539.224,0.0
54808.0,STARLINK-5413,PAYLOAD,2024-03-23 23:57:55,15.08844714,0.0002139,53.2193,347.1565,52.0373,308.0812,9.2369e-05,1.182e-05,0.0,0 STARLINK-5413,1 54808U 22175BC  24083.99855634  .00001182  00000-0  92369-4 0  9993,2 54808  53.2193 347.1565 0002139  52.0373 308.0812 15.08844714 70131,6917.866,95.437,541.211,538.251,0.0
54808.0,STARLINK-5413,PAYLOAD,2024-03-24 11:05:36,15.08855314,0.0001744,53.2191,345.0725,59.9671,300.1494,0.00024899,3.678e-05,0.0,0 STARLINK-5413,1 54808U 22175BC  24084.46222828  .00003678  00000-0  24899-3 0  9993,2 54808  53.2191 345.0725 0001744  59.9671 300.1494 15.08855314 70207,6917.834,95.437,540.905,538.492,0.0
54808.0,STARLINK-5413,PAYLOAD,2024-03-24 20:37:56,15.08846246,0.0003499,53.2187,343.2857,135.9308,224.1963,0.00040221,6.12e-05,0.0,0 STARLINK-5413,1 54808U 22175BC  24084.85968136  .00006120  00000-0  40221-3 0  9997,2 54808  53.2187 343.2857 0003499 135.9308 224.1963 15.08846246 70265,6917.861,95.437,542.147,537.306,0.0
54808.0,STARLINK-5413,PAYLOAD,2024-03-24 22:13:19,15.08852612,0.0001665,53.2188,342.9864,117.4495,242.6667,0.00045932,7.032e-05,0.0,0 STARLINK-5413,1 54808U 22175BC  24084.92591872  .00007032  00000-0  45932-3 0  9991,2 54808  53.2188 342.9864 0001665 117.4495 242.6667 15.08852612 72436,6917.842,95.437,540.859,538.555,0.0
54808.0,STARLINK-5413,PAYLOAD,2024-03-25 20:28:44,15.08819328,0.0001267,53.2187,338.8312,80.6326,279.4809,-0.00028014,-4.741e-05,0.0,0 STARLINK-5413,1 54808U 22175BC  24085.85329570 -.00004741  00000-0 -28014-3 0  9996,2 54808  53.2187 338.8312 0001267  80.6326 279.4809 15.08819328 70418,6917.944,95.439,540.685,538.932,0.0
54808.0,STARLINK-5413,PAYLOAD,2024-03-25 22:04:07,15.08828649,0.0001462,53.218,338.5268,90.3039,269.812,-9.7827e-05,-1.844e-05,0.0,0 STARLINK-5413,1 54808U 22175BC  24085.91953345 -.00001844  00000-0 -97827-4 0  9996,2 54808  53.2180 338.5268 0001462  90.3039 269.8120 15.08828649 72589,6917.915,95.438,540.791,538.769,0.0
